LEMUR-2-CELIJO-SB-PK    
1 66781U 25276DW  26165.43487486  .00007346  00000+0  59531-3 0  9999
2 66781  97.5269 236.3017 0008979 139.4950 220.6944 14.99952426 22219
LEMUR-2-FINNIAN         
1 66782U 25276DX  26165.47928267  .00006754  00000+0  54214-3 0  9996
2 66782  97.5283 236.5565 0008846  97.3513 262.8717 15.00347814 19591
LEMUR-2-STARLIGHT       
1 66783U 25276DY  26165.43320610  .00005128  00000+0  42670-3 0  9998
2 66783  97.5275 236.1657 0015248 135.5868 224.6581 14.99017594 29786
LEMUR-2-TARTIFLETTE     
1 66784U 25276DZ  26165.43173731  .00005524  00000+0  45905-3 0  9993
2 66784  97.5280 236.1708 0013959 142.0163 218.2047 14.99048902 29781
LEMUR-2-VUKASIN         
1 66785U 25276EA  26165.16100334  .00005944  00000+0  47808-3 0  9993
2 66785  97.5317 236.1980 0006251 131.2126 228.9637 15.00339077 29693
LEMUR-2-HOTSPUR-TOM     
1 66786U 25276EB  26165.42410286  .00006483  00000+0  53915-3 0  9998
2 66786  97.5272 236.1449 0015564 135.8459 224.4010 14.98933186 29716
LEMUR-2-MYRA            
1 66787U 25276EC  26165.45901780  .00007153  00000+0  57491-3 0  9994
2 66787  97.5225 236.4293 0016259 150.4811 209.7335 15.00209332 29801
LEMUR-2 FIKRETDENGIZ    
1 67363U 26004A   26165.57952353  .00003211  00000+0  35285-3 0  9998
2 67363  97.8008 164.1774 0009897 140.5751 219.6188 14.88308082 22893
TWILIGHT-1 OBJECT B     
1 67364U 26004B   26165.53563951  .00001622  00000+0  18396-3 0  9995
2 67364  97.8061 164.1508 0009803 131.8214 228.3841 14.87693888 22895
LEMUR-2-MARIO-SOUSA     
1 67365U 26004C   26165.56347181  .00003836  00000+0  41837-3 0  9999
2 67365  97.7984 164.1582 0009458 140.7341 219.4563 14.88496382 22902
LEMUR-2-SONNENBLUME     
1 67367U 26004E   26165.56152123  .00002526  00000+0  27893-3 0  9992
2 67367  97.7980 164.1418 0008965 142.5756 217.6087 14.88304463 22909
LEMUR-2-WOBLER          
1 67368U 26004F   26165.55536067  .00003530  00000+0  38551-3 0  9994
2 67368  97.8033 164.2554 0009451 132.7683 227.4331 14.88501786 22901
LEMUR-2-GRAM-E-SUE      
1 67370U 26004H   26165.61315658  .00002499  00000+0  27497-3 0  9995
2 67370  97.7968 164.2075 0008040 143.1604 217.0166 14.88461396 22914
LEMUR-2-KATIE           
1 67387U 26004AA  26165.53599753  .00003430  00000+0  36101-3 0  9992
2 67387  97.8028 164.5822 0004833  99.0860 261.0905 14.90032505 22911
LEMUR-2-HCS-BAZUS       
1 67388U 26004AB  26165.53509034  .00005034  00000+0  52695-3 0  9994
2 67388  97.8014 164.5622 0004382  95.5857 264.5860 14.90046328 22917
